{"fetched_at":"2026-03-29T16:36:15Z","count":15609,"tles":[{"name":"STARLINK-30405","line1":"1 57851U 23141M   26087.67959859  .00002178  00000+0  85628-4 0  9998","line2":"2 57851  53.1610 195.9890 0000856 108.2628 251.8466 15.30200523143237","category":"Starlink"}]}